NORAD_CAT_ID,OBJECT_NAME,OBJECT_TYPE,EPOCH,MEAN_MOTION,ECCENTRICITY,INCLINATION,RA_OF_ASC_NODE,ARG_OF_PERICENTER,MEAN_ANOMALY,BSTAR,MEAN_MOTION_DOT,MEAN_MOTION_DDOT,TLE_LINE0,TLE_LINE1,TLE_LINE2,SEMIMAJOR_AXIS,PERIOD,APOGEE,PERIGEE,DECAYED
53920.0,STARLINK-5025,PAYLOAD,2022-11-04 14:00:01,15.73200326,0.0002394,53.2161,51.9529,16.3541,325.5115,-0.0016424,-0.00225112,0.0,0 STARLINK-5025,1 53920U 22119AL  22308.58334491 -.00225112  00000-0 -16424-2 0  9990,2 53920  53.2161  51.9529 0002394  16.3541 325.5115 15.73200326  6825,6727.894,91.533,351.37,348.149,0.0
53920.0,STARLINK-5025,PAYLOAD,2022-11-04 22:00:01,15.73223941,0.0002695,53.216,50.3134,10.0869,60.8041,-0.00070469,-0.00098493,0.0,0 STARLINK-5025,1 53920U 22119AL  22308.91668981 -.00098493  00000-0 -70469-3 0  9991,2 53920  53.2160  50.3134 0002695  10.0869  60.8041 15.73223941  1300,6727.8269999999975,91.532,351.505,347.879,0.0
53920.0,STARLINK-5025,PAYLOAD,2022-11-05 12:00:00,15.73096278,0.0002862,53.2164,47.4271,15.7382,120.6321,0.000146,0.0001983,0.0,0 STARLINK-5025,1 53920U 22119AL  22309.50001157  .00019830  00000-0  14600-3 0  9994,2 53920  53.2164  47.4271 0002862  15.7382 120.6321 15.73096278  6976,6728.191,91.539,351.982,348.13,0.0
53920.0,STARLINK-5025,PAYLOAD,2022-11-05 14:00:01,15.73077344,0.0002984,53.2165,47.0152,17.2508,231.3926,0.00052671,0.00073571,0.0,0 STARLINK-5025,1 53920U 22119AL  22309.58335648  .00073571  00000-0  52671-3 0  9999,2 53920  53.2165  47.0152 0002984  17.2508 231.3926 15.73077344  1309,6728.245,91.54,352.11800000000005,348.102,0.0
53920.0,STARLINK-5025,PAYLOAD,2022-11-05 22:00:01,15.73186168,0.0002992,53.2168,45.346,20.2648,317.2267,0.00020356,0.0002803,0.0,0 STARLINK-5025,1 53920U 22119AL  22309.91668981  .00028030  00000-0  20356-3 0  9990,2 53920  53.2168  45.3460 0002992  20.2648 317.2267 15.73186168  7036,6727.935,91.534,351.81300000000016,347.787,0.0
53920.0,STARLINK-5025,PAYLOAD,2022-11-06 14:00:01,15.73225093,0.0003021,53.2166,42.0673,13.6184,141.6666,-0.0001119,-0.00016318,0.0,0 STARLINK-5025,1 53920U 22119AL  22310.58334491 -.00016318  00000-0 -11190-3 0  9995,2 53920  53.2166  42.0673 0003021  13.6184 141.6666 15.73225093  1306,6727.824000000001,91.532,351.721,347.656,0.0
53920.0,STARLINK-5025,PAYLOAD,2022-11-06 22:00:00,15.73233762,0.0002964,53.2168,40.4168,8.8057,235.4318,-0.00024791,-0.00035328,0.0,0 STARLINK-5025,1 53920U 22119AL  22310.91667824 -.00035328  00000-0 -24791-3 0  9994,2 53920  53.2168  40.4168 0002964   8.8057 235.4318 15.73233762  7190,6727.799,91.531,351.658,347.67,0.0
53920.0,STARLINK-5025,PAYLOAD,2022-11-07 22:00:00,15.73247543,0.0003219,53.217,35.4683,6.0579,144.9862,-0.00055777,-0.00078361,0.0,0 STARLINK-5025,1 53920U 22119AL  22311.91667824 -.00078361  00000-0 -55777-3 0  9997,2 53920  53.2170  35.4683 0003219   6.0579 144.9862 15.73247543  1309,6727.76,91.53,351.79,347.459,0.0
53920.0,STARLINK-5025,PAYLOAD,2022-11-08 06:00:00,15.73263819,0.0003127,53.2171,33.8181,12.4381,227.6135,-8.0219e-06,-1.753e-05,0.0,0 STARLINK-5025,1 53920U 22119AL  22312.25001157 -.00001753  00000-0 -80219-5 0  9998,2 53920  53.2171  33.8181 0003127  12.4381 227.6135 15.73263819  7408,6727.7130000000025,91.529,351.682,347.474,0.0
53920.0,STARLINK-5025,PAYLOAD,2022-11-08 14:00:01,15.73241965,0.0003485,53.217,32.1706,12.9842,316.0659,0.00057708,0.00081321,0.0,0 STARLINK-5025,1 53920U 22119AL  22312.58334491  .00081321  00000-0  57708-3 0  9996,2 53920  53.2170  32.1706 0003485  12.9842 316.0659 15.73241965  1301,6727.776,91.531,351.985,347.296,0.0
53920.0,STARLINK-5025,PAYLOAD,2022-11-08 22:00:00,15.73338504,0.0003365,53.2172,30.5197,9.8075,48.252,-0.001034,-0.00144189,0.0,0 STARLINK-5025,1 53920U 22119AL  22312.91667824 -.00144189  00000-0 -10340-2 0  9996,2 53920  53.2172  30.5197 0003365   9.8075  48.2520 15.73338504  1306,6727.5,91.525,351.629,347.102,0.0
53920.0,STARLINK-5025,PAYLOAD,2022-11-09 06:00:00,15.73258136,0.0003344,53.2174,28.8693,12.9281,134.1636,-0.0014395,-0.00198534,0.0,0 STARLINK-5025,1 53920U 22119AL  22313.25001157 -.00198534  00000-0 -14395-2 0  9992,2 53920  53.2174  28.8693 0003344  12.9281 134.1636 15.73258136  7569,6727.729,91.53,351.844,347.345,0.0
53920.0,STARLINK-5025,PAYLOAD,2022-11-09 14:00:01,15.73050361,0.0003746,53.2173,27.222,13.8564,222.1529,0.00044277,0.00061595,0.0,0 STARLINK-5025,1 53920U 22119AL  22313.58334491  .00061595  00000-0  44277-3 0  9995,2 53920  53.2173  27.2220 0003746  13.8564 222.1529 15.73050361  1302,6728.321999999999,91.542,352.707,347.666,0.0
53920.0,STARLINK-5025,PAYLOAD,2022-11-09 22:00:01,15.73114373,0.000354,53.217,25.5712,11.5559,313.286,-0.00048593,-0.0006805,0.0,0 STARLINK-5025,1 53920U 22119AL  22313.91668981 -.00068050  00000-0 -48593-3 0  9996,2 53920  53.2170  25.5712 0003540  11.5559 313.2860 15.73114373  7666,6728.139,91.538,352.386,347.62300000000016,0.0
53920.0,STARLINK-5025,PAYLOAD,2022-11-10 06:00:00,15.73088794,0.0003478999999999,53.2169,23.9218,11.9543,41.6287,0.00043886,0.0006114,0.0,0 STARLINK-5025,1 53920U 22119AL  22314.25001157  .00061140  00000-0  43886-3 0  9991,2 53920  53.2169  23.9218 0003479  11.9543  41.6287 15.73088794  7724,6728.212,91.54,352.418,347.737,0.0
53920.0,STARLINK-5025,PAYLOAD,2022-11-10 14:00:01,15.73102621,0.0003797,53.2167,22.2745,11.4192,130.9839,0.00069531,0.00097721,0.0,0 STARLINK-5025,1 53920U 22119AL  22314.58334491  .00097721  00000-0  69531-3 0  9996,2 53920  53.2167  22.2745 0003797  11.4192 130.9839 15.73102621  1306,6728.1730000000025,91.539,352.593,347.483,0.0
53920.0,STARLINK-5025,PAYLOAD,2022-11-10 22:00:00,15.73173637,0.0003708,53.2168,20.6235,12.3701,218.8837,0.00027133,0.00037596,0.0,0 STARLINK-5025,1 53920U 22119AL  22314.91667824  .00037596  00000-0  27133-3 0  9998,2 53920  53.2168  20.6235 0003708  12.3701 218.8837 15.73173637  1300,6727.97,91.535,352.33,347.341,0.0
53920.0,STARLINK-5025,PAYLOAD,2022-11-11 14:00:01,15.73247735,0.0004013,53.2169,17.326,13.9834,35.1558,0.00052045,0.00073235,0.0,0 STARLINK-5025,1 53920U 22119AL  22315.58334491  .00073235  00000-0  52045-3 0  9993,2 53920  53.2169  17.3260 0004013  13.9834  35.1558 15.73247735  7932,6727.759,91.53,352.324,346.9240000000001,0.0
53920.0,STARLINK-5025,PAYLOAD,2022-11-11 22:00:00,15.73304893,0.000379,53.2166,15.6746,10.3024,127.8602,-0.00063563,-0.00089331,0.0,0 STARLINK-5025,1 53920U 22119AL  22315.91667824 -.00089331  00000-0 -63563-3 0  9992,2 53920  53.2166  15.6746 0003790  10.3024 127.8602 15.73304893  7985,6727.596,91.527,352.011,346.911,0.0
53920.0,STARLINK-5025,PAYLOAD,2022-11-12 14:00:01,15.73221726,0.0004021,53.2162,12.3772,5.0009,311.1353,0.00027206,0.0003778,0.0,0 STARLINK-5025,1 53920U 22119AL  22316.58334491  .00037780  00000-0  27206-3 0  9990,2 53920  53.2162  12.3772 0004021   5.0009 311.1353 15.73221726  1300,6727.833000000001,91.532,352.403,346.99300000000005,0.0
53920.0,STARLINK-5025,PAYLOAD,2022-11-12 22:00:00,15.73236616,0.0003819,53.2164,10.7256,2.4234,42.6953,-0.00062683,-0.00087862,0.0,0 STARLINK-5025,1 53920U 22119AL  22316.91667824 -.00087862  00000-0 -62683-3 0  9992,2 53920  53.2164  10.7256 0003819   2.4234  42.6953 15.73236616  8141,6727.791,91.531,352.225,347.086,0.0
53920.0,STARLINK-5025,PAYLOAD,2022-11-13 14:00:01,15.73124484,0.0004239,53.2165,7.4284,6.441,216.489,0.0007991,0.00112718,0.0,0 STARLINK-5025,1 53920U 22119AL  22317.58334491  .00112718  00000-0  79910-3 0  9995,2 53920  53.2165   7.4284 0004239   6.4410 216.4890 15.73124484  1304,6728.11,91.538,352.82800000000015,347.12300000000016,0.0
53920.0,STARLINK-5025,PAYLOAD,2022-11-13 22:00:00,15.73207538,0.000404,53.2163,5.777,6.4596,305.3576,0.00011049,0.00014921,0.0,0 STARLINK-5025,1 53920U 22119AL  22317.91667824  .00014921  00000-0  11049-3 0  9997,2 53920  53.2163   5.7770 0004040   6.4596 305.3576 15.73207538  1309,6727.874,91.533,352.457,347.021,0.0
53920.0,STARLINK-5025,PAYLOAD,2022-11-14 14:00:01,15.732292,0.0004301,53.2158,2.4799,5.1215,124.5921,0.00025332,0.00035137,0.0,0 STARLINK-5025,1 53920U 22119AL  22318.58334491  .00035137  00000-0  25332-3 0  9994,2 53920  53.2158   2.4799 0004301   5.1215 124.5921 15.73229200  8405,6727.812,91.531,352.571,346.783,0.0
53920.0,STARLINK-5025,PAYLOAD,2022-11-14 22:00:00,15.73213773,0.0004098,53.2161,0.8283,2.9971,215.6745,-0.00033387,-0.00047271,0.0,0 STARLINK-5025,1 53920U 22119AL  22318.91667824 -.00047271  00000-0 -33387-3 0  9993,2 53920  53.2161   0.8283 0004098   2.9971 215.6745 15.73213773  8455,6727.856,91.532,352.478,346.964,0.0
53920.0,STARLINK-5025,PAYLOAD,2022-11-15 14:00:01,15.73132401,0.0004504,53.2161,357.5313,6.8702,29.6394,0.00072233,0.00101737,0.0,0 STARLINK-5025,1 53920U 22119AL  22319.58334491  .00101737  00000-0  72233-3 0  9997,2 53920  53.2161 357.5313 0004504   6.8702  29.6394 15.73132401  8561,6728.0880000000025,91.537,352.983,346.923,0.0
53920.0,STARLINK-5025,PAYLOAD,2022-11-15 22:00:00,15.73178804,0.0004245,53.2163,355.8789,7.1044,118.302,0.00058177,0.00081782,0.0,0 STARLINK-5025,1 53920U 22119AL  22319.91667824  .00081782  00000-0  58177-3 0  9991,2 53920  53.2163 355.8789 0004245   7.1044 118.3020 15.73178804  1300,6727.956,91.534,352.677,346.965,0.0
53920.0,STARLINK-5025,PAYLOAD,2022-11-16 04:00:00,15.73255592,0.0004166,53.2163,354.6317,7.7097,94.3922,-0.00044029,-0.00062143,0.0,0 STARLINK-5025,1 53920U 22119AL  22320.16667824 -.00062143  00000-0 -44029-3 0  9993,2 53920  53.2163 354.6317 0004166   7.7097  94.3922 15.73255592  8659,6727.736999999999,91.53,352.404,346.7990000000001,0.0
53920.0,STARLINK-5025,PAYLOAD,2022-11-16 14:00:01,15.73200243,0.0004242,53.2166,352.5605,5.4027,297.9763,5.137e-05,6.594e-05,0.0,0 STARLINK-5025,1 53920U 22119AL  22320.58335648  .00006594  00000-0  51370-4 0  9999,2 53920  53.2166 352.5605 0004242   5.4027 297.9763 15.73200243  1304,6727.894,91.533,352.61300000000006,346.906,0.0
